[{"OBJECT_NAME":"STARLINK-33712","OBJECT_ID":"2025-091Y","EPOCH":"2026-03-09T09:08:19.632192","MEAN_MOTION":15.27606334,"ECCENTRICITY":0.00014029,"INCLINATION":43.0012,"RA_OF_ASC_NODE":57.9029,"ARG_OF_PERICENTER":242.4408,"MEAN_ANOMALY":117.6301,"EPHEMERIS_TYPE":0,"CLASSIFICATION_TYPE":"U","NORAD_CAT_ID":63797,"ELEMENT_SET_NO":999,"REV_AT_EPOCH":4881,"BSTAR":0.0012585152,"MEAN_MOTION_DOT":0.0003456,"MEAN_MOTION_DDOT":0},{"OBJECT_NAME":"ELECTRON KICK STAGE R\/B","OBJECT_ID":"2025-061J","EPOCH":"2026-03-09T21:50:35.145600","MEAN_MOTION":15.31602074,"ECCENTRICITY":0.00402669,"INCLINATION":97.5479,"RA_OF_ASC_NODE":52.3854,"ARG_OF_PERICENTER":150.2628,"MEAN_ANOMALY":210.0914,"EPHEMERIS_TYPE":0,"CLASSIFICATION_TYPE":"U","NORAD_CAT_ID":63359,"ELEMENT_SET_NO":999,"REV_AT_EPOCH":5306,"BSTAR":0.0006963674,"MEAN_MOTION_DOT":0.00021749,"MEAN_MOTION_DDOT":0}]
